{
  "type": "FeatureCollection",
  "features": [
    {
      "type": "Feature",
      "properties": {
        "norad_id": 30315,
        "name": "FENGYUN 1C DEB",
        "group": "fengyun-1c-debris",
        "lat": 75.74828931328335,
        "lon": -27.18597962060319,
        "alt_km": 832.7727657307387,
        "timestamp": "2025-12-26T06:43:29.787129+00:00",
        "meta_object_name": "FENGYUN 1C DEB",
        "meta_object_id": "1999-025AAC",
        "meta_epoch": "2025-12-25T23:50:23.821728",
        "meta_mean_motion": 14.1908285,
        "meta_eccentricity": 0.00345802,
        "meta_inclination": 98.6016,
        "meta_ra_of_asc_node": 9.1131,
        "meta_arg_of_pericenter": 321.7466,
        "meta_mean_anomaly": 91.7925,
        "meta_ephemeris_type": 0,
        "meta_classification_type": "U",
        "meta_norad_cat_id": 30315,
        "meta_element_set_no": 999,
        "meta_rev_at_epoch": 97895,
        "meta_bstar": 0.00031986413,
        "meta_mean_motion_dot": 6.3e-06,
        "meta_mean_motion_ddot": 0,
        "tle_line1": "1 30315U 99025AAC 25359.99333127  .00000630  00000+0  31986-3 0  9996",
        "tle_line2": "2 30315  98.6016   9.1131 0034580 321.7466  91.7925 14.19082850978957"
      },
      "geometry": {
        "type": "Point",
        "coordinates": [
          -27.18597962060319,
          75.74828931328335
        ]
      }
    },
    {
      "type": "Feature",
      "properties": {
        "norad_id": 30316,
        "name": "FENGYUN 1C DEB",
        "group": "fengyun-1c-debris",
        "lat": 41.30931521489948,
        "lon": -69.12704174165573,
        "alt_km": 721.0093763669274,
        "timestamp": "2025-12-26T06:43:29.787139+00:00",
        "meta_object_name": "FENGYUN 1C DEB",
        "meta_object_id": "1999-025AAD",
        "meta_epoch": "2025-12-25T05:21:34.720992",
        "meta_mean_motion": 14.56278684,
        "meta_eccentricity": 0.0035142,
        "meta_inclination": 98.6477,
        "meta_ra_of_asc_node": 102.0917,
        "meta_arg_of_pericenter": 0.7198,
        "meta_mean_anomaly": 359.4043,
        "meta_ephemeris_type": 0,
        "meta_classification_type": "U",
        "meta_norad_cat_id": 30316,
        "meta_element_set_no": 999,
        "meta_rev_at_epoch": 98518,
        "meta_bstar": 0.0021656,
        "meta_mean_motion_dot": 9.627e-05,
        "meta_mean_motion_ddot": 0,
        "tle_line1": "1 30316U 99025AAD 25359.22331853  .00009627  00000+0  21656-2 0  9994",
        "tle_line2": "2 30316  98.6477 102.0917 0035142   0.7198 359.4043 14.56278684985186"
      },
      "geometry": {
        "type": "Point",
        "coordinates": [
          -69.12704174165573,
          41.30931521489948
        ]
      }
    },
    {
      "type": "Feature",
      "properties": {
        "norad_id": 30317,
        "name": "FENGYUN 1C DEB",
        "group": "fengyun-1c-debris",
        "lat": -19.961616821634127,
        "lon": 177.1476151923613,
        "alt_km": 860.8767723021547,
        "timestamp": "2025-12-26T06:43:29.787150+00:00",
        "meta_object_name": "FENGYUN 1C DEB",
        "meta_object_id": "1999-025AAE",
        "meta_epoch": "2025-12-25T22:56:52.401120",
        "meta_mean_motion": 14.06953973,
        "meta_eccentricity": 0.00242351,
        "meta_inclination": 98.7867,
        "meta_ra_of_asc_node": 0.0532,
        "meta_arg_of_pericenter": 238.086,
        "meta_mean_anomaly": 121.7951,
        "meta_ephemeris_type": 0,
        "meta_classification_type": "U",
        "meta_norad_cat_id": 30317,
        "meta_element_set_no": 999,
        "meta_rev_at_epoch": 97199,
        "meta_bstar": 0.00011418614,
        "meta_mean_motion_dot": 1.48e-06,
        "meta_mean_motion_ddot": 0,
        "tle_line1": "1 30317U 99025AAE 25359.95616205  .00000148  00000+0  11419-3 0  9998",
        "tle_line2": "2 30317  98.7867   0.0532 0024235 238.0860 121.7951 14.06953973971992"
      },
      "geometry": {
        "type": "Point",
        "coordinates": [
          177.1476151923613,
          -19.961616821634127
        ]
      }
    },
    {
      "type": "Feature",
      "properties": {
        "norad_id": 30320,
        "name": "FENGYUN 1C DEB",
        "group": "fengyun-1c-debris",
        "lat": -49.85544238553445,
        "lon": -131.4603427989417,
        "alt_km": 850.2827315733466,
        "timestamp": "2025-12-26T06:43:29.787160+00:00",
        "meta_object_name": "FENGYUN 1C DEB",
        "meta_object_id": "1999-025AAH",
        "meta_epoch": "2025-12-25T14:55:24.028032",
        "meta_mean_motion": 13.98562576,
        "meta_eccentricity": 0.0084817,
        "meta_inclination": 99.1861,
        "meta_ra_of_asc_node": 58.9417,
        "meta_arg_of_pericenter": 259.0388,
        "meta_mean_anomaly": 258.9358,
        "meta_ephemeris_type": 0,
        "meta_classification_type": "U",
        "meta_norad_cat_id": 30320,
        "meta_element_set_no": 999,
        "meta_rev_at_epoch": 96587,
        "meta_bstar": 0.00032162,
        "meta_mean_motion_dot": 4.3e-06,
        "meta_mean_motion_ddot": 0,
        "tle_line1": "1 30320U 99025AAH 25359.62180588  .00000430  00000+0  32162-3 0  9998",
        "tle_line2": "2 30320  99.1861  58.9417 0084817 259.0388 258.9358 13.98562576965878"
      },
      "geometry": {
        "type": "Point",
        "coordinates": [
          -131.4603427989417,
          -49.85544238553445
        ]
      }
    },
    {
      "type": "Feature",
      "properties": {
        "norad_id": 30321,
        "name": "FENGYUN 1C DEB",
        "group": "fengyun-1c-debris",
        "lat": 78.95523979260427,
        "lon": -52.35633905233216,
        "alt_km": 847.103687439635,
        "timestamp": "2025-12-26T06:43:29.787170+00:00",
        "meta_object_name": "FENGYUN 1C DEB",
        "meta_object_id": "1999-025AAJ",
        "meta_epoch": "2025-12-25T23:48:48.983904",
        "meta_mean_motion": 14.16656088,
        "meta_eccentricity": 0.00604294,
        "meta_inclination": 98.6566,
        "meta_ra_of_asc_node": 358.6682,
        "meta_arg_of_pericenter": 198.349,
        "meta_mean_anomaly": 217.5952,
        "meta_ephemeris_type": 0,
        "meta_classification_type": "U",
        "meta_norad_cat_id": 30321,
        "meta_element_set_no": 999,
        "meta_rev_at_epoch": 97731,
        "meta_bstar": 0.00027236651,
        "meta_mean_motion_dot": 5.11e-06,
        "meta_mean_motion_ddot": 0,
        "tle_line1": "1 30321U 99025AAJ 25359.99223361  .00000511  00000+0  27237-3 0  9993",
        "tle_line2": "2 30321  98.6566 358.6682 0060429 198.3490 217.5952 14.16656088977317"
      },
      "geometry": {
        "type": "Point",
        "coordinates": [
          -52.35633905233216,
          78.95523979260427
        ]
      }
    },
    {
      "type": "Feature",
      "properties": {
        "norad_id": 30322,
        "name": "FENGYUN 1C DEB",
        "group": "fengyun-1c-debris",
        "lat": -55.098405033735595,
        "lon": -130.7744155690673,
        "alt_km": 877.8509992003856,
        "timestamp": "2025-12-26T06:43:29.787180+00:00",
        "meta_object_name": "FENGYUN 1C DEB",
        "meta_object_id": "1999-025AAK",
        "meta_epoch": "2025-12-25T13:54:58.066272",
        "meta_mean_motion": 14.06150308,
        "meta_eccentricity": 0.0126361,
        "meta_inclination": 98.3986,
        "meta_ra_of_asc_node": 216.3501,
        "meta_arg_of_pericenter": 216.411,
        "meta_mean_anomaly": 142.8416,
        "meta_ephemeris_type": 0,
        "meta_classification_type": "U",
        "meta_norad_cat_id": 30322,
        "meta_element_set_no": 999,
        "meta_rev_at_epoch": 96380,
        "meta_bstar": 0.0010427,
        "meta_mean_motion_dot": 1.802e-05,
        "meta_mean_motion_ddot": 0,
        "tle_line1": "1 30322U 99025AAK 25359.57983873  .00001802  00000+0  10427-2 0  9995",
        "tle_line2": "2 30322  98.3986 216.3501 0126361 216.4110 142.8416 14.06150308963807"
      },
      "geometry": {
        "type": "Point",
        "coordinates": [
          -130.7744155690673,
          -55.098405033735595
        ]
      }
    },
    {
      "type": "Feature",
      "properties": {
        "norad_id": 30325,
        "name": "FENGYUN 1C DEB",
        "group": "fengyun-1c-debris",
        "lat": 60.93892635147028,
        "lon": -144.73166363713682,
        "alt_km": 857.5298318321211,
        "timestamp": "2025-12-26T06:43:29.787190+00:00",
        "meta_object_name": "FENGYUN 1C DEB",
        "meta_object_id": "1999-025AAL",
        "meta_epoch": "2025-12-23T18:31:16.264128",
        "meta_mean_motion": 14.09107979,
        "meta_eccentricity": 0.00155616,
        "meta_inclination": 98.7322,
        "meta_ra_of_asc_node": 16.7817,
        "meta_arg_of_pericenter": 220.3959,
        "meta_mean_anomaly": 139.6057,
        "meta_ephemeris_type": 0,
        "meta_classification_type": "U",
        "meta_norad_cat_id": 30325,
        "meta_element_set_no": 999,
        "meta_rev_at_epoch": 97171,
        "meta_bstar": 0.00014655586,
        "meta_mean_motion_dot": 2.12e-06,
        "meta_mean_motion_ddot": 0,
        "tle_line1": "1 30325U 99025AAL 25357.77171602  .00000212  00000+0  14656-3 0  9990",
        "tle_line2": "2 30325  98.7322  16.7817 0015561 220.3959 139.6057 14.09107979971717"
      },
      "geometry": {
        "type": "Point",
        "coordinates": [
          -144.73166363713682,
          60.93892635147028
        ]
      }
    }
  ]
}